     2.11           N: GPS NAV DATA                         RINEX VERSION / TYPE
teqc  2016Apr1      IGN                 20231227 21:30:03UTCPGM / RUN BY / DATE
    18                                                      LEAP SECONDS
    2.4214D-08  7.4506D-09 -1.1921D-07  1.1921D-07          ION ALPHA
    1.4746D+05 -2.1299D+05  0.0000D+00  3.2768D+05          ION BETA
   -9.313225746155D-10 0.000000000000D+00   503808     2294 DELTA-UTC: A0,A1,T,W
                                                            END OF HEADER
 5 23 12 27  9 59 44.0-1.556859351695D-04-1.477928890381D-12 0.000000000000D+00
    4.700000000000D+01-1.405000000000D+02 4.275177989399D-09 1.529215712601D+00
   -7.322058081627D-06 5.801641033031D-03 6.331130862236D-06 5.153783485413D+03
    2.951840000000D+05-1.341104507446D-07-5.062839210318D-01-8.568167686462D-08
    9.694191654794D-01 2.639062500000D+02 1.234946954098D+00-7.952117186960D-09
   -1.232194207779D-10 1.000000000000D+00 2.294000000000D+03 0.000000000000D+00
    2.000000000000D+00 0.000000000000D+00-1.117587089539D-08 4.700000000000D+01
    2.880300000000D+05
13 23 12 27  9 59 44.0 6.098626181483D-04 3.865352482535D-12 0.000000000000D+00
    2.400000000000D+01-1.340625000000D+01 4.355181548732D-09 8.793055900816D-01
   -6.034970283508D-07 7.748904521577D-03 9.508803486824D-06 5.153660243988D+03
    2.951840000000D+05-8.940696716309D-08 7.274895255331D-01 6.146728992462D-08
    9.707347662452D-01 2.015312500000D+02 9.509058508741D-01-7.810325719504D-09
    5.175215811448D-10 1.000000000000D+00 2.294000000000D+03 0.000000000000D+00
    2.000000000000D+00 0.000000000000D+00-1.117587089539D-08 2.400000000000D+01
    2.880300000000D+05
30 23 12 27  9 59 44.0-4.526525735855D-04 4.433786671143D-12 0.000000000000D+00
    2.400000000000D+01 2.093750000000D+00 5.478799636194D-09-1.731260102412D+00
   -1.676380634308D-08 6.649127113633D-03 4.757195711136D-06 5.153703992844D+03
    2.951840000000D+05 6.705522537231D-08 1.639074561029D+00-5.587935447693D-08
    9.348647888252D-01 2.719375000000D+02-2.550333070283D+00-8.296059839097D-09
    7.536028051591D-11 1.000000000000D+00 2.294000000000D+03 0.000000000000D+00
    2.000000000000D+00 0.000000000000D+00 3.725290298462D-09 2.400000000000D+01
    2.880300000000D+05
23 23 12 27  9 59 44.0 1.237546093762D-04 7.162270776462D-12 0.000000000000D+00
    1.710000000000D+02-1.563437500000D+02 3.950878855677D-09-1.892057022512D+00
   -8.119270205498D-06 3.931513521820D-03 6.655231118202D-06 5.153708816528D+03
    2.951840000000D+05 1.676380634308D-08-4.877720210683D-01-4.470348358154D-08
    9.772723057599D-01 2.595937500000D+02-2.998323502129D+00-7.817111328350D-09
   -9.393248409357D-11 1.000000000000D+00 2.294000000000D+03 0.000000000000D+00
    2.000000000000D+00 0.000000000000D+00-8.381903171539D-09 9.390000000000D+02
    2.883780000000D+05 4.000000000000D+00
27 23 12 27  9 59 44.0-8.793221786618D-05-4.206412995700D-12 0.000000000000D+00
    2.000000000000D+01 1.507812500000D+02 4.102313734976D-09 1.314722605302D+00
    7.856637239456D-06 1.205521530937D-02 8.180737495422D-06 5.153680795670D+03
    2.951840000000D+05-1.117587089539D-07-2.559988645597D+00 1.080334186554D-07
    9.647597509161D-01 2.238750000000D+02 7.453116098830D-01-8.005333454271D-09
   -2.892977646988D-11 1.000000000000D+00 2.294000000000D+03 0.000000000000D+00
    2.000000000000D+00 0.000000000000D+00 1.862645149231D-09 2.000000000000D+01
    2.911680000000D+05 4.000000000000D+00
 2 23 12 27  9 59 44.0-5.096783861518D-04 5.456968210638D-12 0.000000000000D+00
    2.000000000000D+00 3.371875000000D+01 4.509830709694D-09 1.626975886190D+00
    1.337379217148D-06 1.631012768485D-02-1.106411218643D-06 5.153902492523D+03
    2.951840000000D+05 2.887099981308D-07-1.589486549158D+00-1.788139343262D-07
    9.673392997361D-01 4.013125000000D+02-1.279388529885D+00-8.266058600234D-09
    6.321691895271D-11 1.000000000000D+00 2.294000000000D+03 0.000000000000D+00
    2.000000000000D+00 0.000000000000D+00-1.769512891769D-08 2.000000000000D+00
    2.880180000000D+05 4.000000000000D+00
 9 23 12 27 10  0  0.0 3.967899829149D-05 1.193711796077D-11 0.000000000000D+00
    3.200000000000D+01-3.400000000000D+01 4.397326058836D-09 1.677932901189D+00
   -1.844018697739D-06 2.929536160082D-03 9.777024388313D-06 5.153754549026D+03
    2.952000000000D+05 4.097819328308D-08 5.639331176894D-01-5.774199962616D-08
    9.576038447067D-01 1.863750000000D+02 2.000963108968D+00-7.720678318890D-09
    4.914490481234D-10 1.000000000000D+00 2.294000000000D+03 0.000000000000D+00
    2.000000000000D+00 0.000000000000D+00 1.396983861923D-09 3.200000000000D+01
    2.880300000000D+05
11 23 12 27 10  0  0.0-5.170167423785D-04-1.466560206609D-11 0.000000000000D+00
    1.580000000000D+02 1.406250000000D+00 4.614120641122D-09 4.224300594504D-01
   -9.313225746155D-09 1.289496431127D-03-3.874301910400D-07 5.153642610550D+03
    2.952000000000D+05 3.725290298462D-09-1.457977153915D+00 1.303851604462D-08
    9.658121683306D-01 3.909687500000D+02-2.496034807446D+00-8.391063843760D-09
    3.607293283525D-11 1.000000000000D+00 2.294000000000D+03 0.000000000000D+00
    2.000000000000D+00 0.000000000000D+00-8.381903171539D-09 1.580000000000D+02
    2.880300000000D+05
20 23 12 27 10  0  0.0 3.945673815906D-04-1.932676241267D-12 0.000000000000D+00
    6.200000000000D+01-1.315000000000D+02 4.737697345547D-09-1.813019757264D-01
   -6.740912795067D-06 4.027200513519D-03 4.740431904793D-06 5.153685098648D+03
    2.952000000000D+05 2.048909664154D-08-6.324544845193D-01 3.539025783539D-08
    9.518361585166D-01 2.844062500000D+02-2.700122226723D+00-8.249272376304D-09
   -1.360770940373D-10 1.000000000000D+00 2.294000000000D+03 0.000000000000D+00
    2.000000000000D+00 0.000000000000D+00-8.381903171539D-09 6.200000000000D+01
    2.880300000000D+05
22 23 12 27 10  0  0.0 5.874177441001D-05-6.707523425575D-12 0.000000000000D+00
    5.900000000000D+01 2.168750000000D+01 4.216604398977D-09 1.777968934971D+00
    1.102685928345D-06 1.475439709611D-02 9.784474968910D-06 5.153721887589D+03
    2.952000000000D+05 3.296881914139D-07 2.772932020869D+00 1.676380634308D-08
    9.626655163914D-01 1.874375000000D+02-1.151373089185D+00-7.484239894495D-09
   -5.993106566571D-10 1.000000000000D+00 2.294000000000D+03 0.000000000000D+00
    2.000000000000D+00 0.000000000000D+00-1.117587089539D-08 5.900000000000D+01
    2.880300000000D+05
14 23 12 27 10  0  0.0 2.822466194630D-04 1.045918907039D-11 0.000000000000D+00
    7.300000000000D+01 1.590625000000D+01 4.604834735744D-09-2.336421762579D+00
    8.214265108109D-07 3.796623903327D-03 9.868294000626D-06 5.153680957794D+03
    2.952000000000D+05-5.029141902924D-08 2.709593420231D+00 1.862645149231D-09
    9.470828012059D-01 1.824375000000D+02-2.962733300477D+00-7.811396862678D-09
   -5.503800748485D-10 1.000000000000D+00 2.294000000000D+03 0.000000000000D+00
    2.000000000000D+00 0.000000000000D+00-7.916241884232D-09 3.290000000000D+02
    2.880300000000D+05
 7 23 12 27 10  0  0.0-2.231029793620D-05-9.549694368616D-12 0.000000000000D+00
    2.800000000000D+01 2.281250000000D+00 5.073068631845D-09-1.634662417657D+00
    1.527369022369D-07 1.773949258495D-02 4.637986421585D-06 5.153675302505D+03
    2.952000000000D+05 3.669410943985D-07 1.636186329180D+00-2.235174179077D-08
    9.497317962100D-01 2.796875000000D+02-2.160437551124D+00-7.972475124518D-09
    7.571743926293D-11 1.000000000000D+00 2.294000000000D+03 0.000000000000D+00
    2.000000000000D+00 0.000000000000D+00-1.117587089539D-08 2.800000000000D+01
    2.880300000000D+05
 6 23 12 27 10  0  0.0 4.649586044252D-04-1.227817847393D-11 0.000000000000D+00
    2.900000000000D+01 1.000000000000D+01 4.049454549460D-09-7.339673501948D-01
    3.166496753693D-07 3.071430022828D-03 1.806765794754D-07 5.153534727097D+03
    2.952000000000D+05-1.676380634308D-08-1.494465534602D+00-2.980232238770D-08
    9.893993524315D-01 3.903125000000D+02-8.323885740395D-01-8.152839292563D-09
    9.500395609097D-11 1.000000000000D+00 2.294000000000D+03 0.000000000000D+00
    2.000000000000D+00 0.000000000000D+00 3.725290298462D-09 2.900000000000D+01
    2.880300000000D+05
15 23 12 27 10  0  0.0 1.111035235226D-04 3.865352482535D-12 0.000000000000D+00
    1.200000000000D+01-4.481250000000D+01 5.066639552354D-09 2.065055409390D-01
   -2.155080437660D-06 1.544578943867D-02 1.057609915733D-05 5.153587856293D+03
    2.952000000000D+05-2.589076757431D-07 4.400134028844D-01 8.195638656616D-08
    9.343292159793D-01 1.643437500000D+02 1.282050340051D+00-8.308917109900D-09
    4.596620029051D-10 1.000000000000D+00 2.294000000000D+03 0.000000000000D+00
    2.000000000000D+00 0.000000000000D+00-1.024454832077D-08 1.200000000000D+01
    2.895600000000D+05
18 23 12 27 10  0  0.0-5.170055665076D-04-9.663381206337D-12 0.000000000000D+00
    1.250000000000D+02 3.875000000000D+00 4.385896978931D-09-8.517329855719D-01
    2.048909664154D-07 3.830156987533D-03-9.778887033463D-07 5.153638250351D+03
    2.952000000000D+05 3.539025783539D-08-1.488225258578D+00-4.656612873077D-08
    9.741772641076D-01 4.032187500000D+02-3.017028695995D+00-8.372492033004D-09
    9.143238249854D-11 1.000000000000D+00 2.294000000000D+03 0.000000000000D+00
    2.000000000000D+00 0.000000000000D+00-8.381903171539D-09 6.370000000000D+02
    2.901000000000D+05
 8 23 12 27 10  0  0.0-1.590666361153D-04-1.932676241267D-12 0.000000000000D+00
    2.500000000000D+01 1.511562500000D+02 4.222318938929D-09 1.186064411063D+00
    7.996335625648D-06 9.078404633328D-03 8.251518011093D-06 5.153576871872D+03
    2.952000000000D+05-6.146728992462D-08-2.585137273847D+00 1.154839992523D-07
    9.558077748303D-01 2.152812500000D+02 2.891492093909D-01-7.959616965536D-09
   -5.000208233574D-11 1.000000000000D+00 2.294000000000D+03 0.000000000000D+00
    2.000000000000D+00 0.000000000000D+00 5.122274160385D-09 2.500000000000D+01
    2.910000000000D+05
